ICEYE-X49               
1 62384U 24247H   26068.30955979  .00004029  00000+0  24529-3 0  9990
2 62384  44.9974 170.2236 0002108 247.0457 113.0198 15.11992896 67055
LEMUR-2-UNTITLED-SC     
1 63351U 25061A   26068.89211098  .00005783  00000+0  33296-3 0  9990
2 63351  97.5556  45.0864 0017373 245.6030 114.3388 15.12695529 52577
